{
  "type": "FeatureCollection",
  "features": [
    {
      "type": "Feature",
      "properties": {
        "norad_id": 41859,
        "name": "GSAT0207 (GALILEO 15)",
        "group": "gnss",
        "lat": -55.36431932315554,
        "lon": 18.535083127714895,
        "alt_km": 23224.393668944263,
        "timestamp": "2025-12-05T14:45:15.543933+00:00",
        "meta_object_name": "GSAT0207 (GALILEO 15)",
        "meta_object_id": "2016-069A",
        "meta_epoch": "2025-12-03T23:59:33.819072",
        "meta_mean_motion": 1.70474248,
        "meta_eccentricity": 0.0002136,
        "meta_inclination": 55.3774,
        "meta_ra_of_asc_node": 106.4923,
        "meta_arg_of_pericenter": 325.6107,
        "meta_mean_anomaly": 34.3288,
        "meta_ephemeris_type": 0,
        "meta_classification_type": "U",
        "meta_norad_cat_id": 41859,
        "meta_element_set_no": 999,
        "meta_rev_at_epoch": 5607,
        "meta_bstar": 0,
        "meta_mean_motion_dot": 1.5e-07,
        "meta_mean_motion_ddot": 0,
        "tle_line1": "1 41859U 16069A   25337.99969698  .00000015  00000+0  00000+0 0  9998",
        "tle_line2": "2 41859  55.3774 106.4923 0002136 325.6107  34.3288  1.70474248 56074"
      },
      "geometry": {
        "type": "Point",
        "coordinates": [
          18.535083127714895,
          -55.36431932315554
        ]
      }
    },
    {
      "type": "Feature",
      "properties": {
        "norad_id": 41860,
        "name": "GSAT0212 (GALILEO 16)",
        "group": "gnss",
        "lat": 0.8316155743638671,
        "lon": 106.99975151939032,
        "alt_km": 23216.73511447071,
        "timestamp": "2025-12-05T14:45:15.543944+00:00",
        "meta_object_name": "GSAT0212 (GALILEO 16)",
        "meta_object_id": "2016-069B",
        "meta_epoch": "2025-12-02T16:19:30.905184",
        "meta_mean_motion": 1.70474418,
        "meta_eccentricity": 0.00022458,
        "meta_inclination": 55.3738,
        "meta_ra_of_asc_node": 106.5243,
        "meta_arg_of_pericenter": 34.2432,
        "meta_mean_anomaly": 325.7313,
        "meta_ephemeris_type": 0,
        "meta_classification_type": "U",
        "meta_norad_cat_id": 41860,
        "meta_element_set_no": 999,
        "meta_rev_at_epoch": 5630,
        "meta_bstar": 0,
        "meta_mean_motion_dot": 2.7e-07,
        "meta_mean_motion_ddot": 0,
        "tle_line1": "1 41860U 16069B   25336.68021881  .00000027  00000+0  00000+0 0  9991",
        "tle_line2": "2 41860  55.3738 106.5243 0002245  34.2432 325.7313  1.70474418 56308"
      },
      "geometry": {
        "type": "Point",
        "coordinates": [
          106.99975151939032,
          0.8316155743638671
        ]
      }
    },
    {
      "type": "Feature",
      "properties": {
        "norad_id": 41861,
        "name": "GSAT0213 (GALILEO 17)",
        "group": "gnss",
        "lat": 35.27887545744981,
        "lon": -102.80193617073155,
        "alt_km": 23223.018573546084,
        "timestamp": "2025-12-05T14:45:15.543956+00:00",
        "meta_object_name": "GSAT0213 (GALILEO 17)",
        "meta_object_id": "2016-069C",
        "meta_epoch": "2025-12-01T20:59:28.954752",
        "meta_mean_motion": 1.70474717,
        "meta_eccentricity": 0.00020626,
        "meta_inclination": 55.3756,
        "meta_ra_of_asc_node": 106.5542,
        "meta_arg_of_pericenter": 284.0381,
        "meta_mean_anomaly": 75.9044,
        "meta_ephemeris_type": 0,
        "meta_classification_type": "U",
        "meta_norad_cat_id": 41861,
        "meta_element_set_no": 999,
        "meta_rev_at_epoch": 5615,
        "meta_bstar": 0,
        "meta_mean_motion_dot": 3.5e-07,
        "meta_mean_motion_ddot": 0,
        "tle_line1": "1 41861U 16069C   25335.87464068  .00000035  00000+0  00000+0 0  9999",
        "tle_line2": "2 41861  55.3756 106.5542 0002062 284.0381  75.9044  1.70474717 56156"
      },
      "geometry": {
        "type": "Point",
        "coordinates": [
          -102.80193617073155,
          35.27887545744981
        ]
      }
    },
    {
      "type": "Feature",
      "properties": {
        "norad_id": 41862,
        "name": "GSAT0214 (GALILEO 18)",
        "group": "gnss",
        "lat": 36.17504354717846,
        "lon": 136.7445645505936,
        "alt_km": 23219.08067418398,
        "timestamp": "2025-12-05T14:45:15.543967+00:00",
        "meta_object_name": "GSAT0214 (GALILEO 18)",
        "meta_object_id": "2016-069D",
        "meta_epoch": "2025-12-02T14:34:22.700352",
        "meta_mean_motion": 1.70474512,
        "meta_eccentricity": 0.0001109,
        "meta_inclination": 55.3745,
        "meta_ra_of_asc_node": 106.5268,
        "meta_arg_of_pericenter": 291.2976,
        "meta_mean_anomaly": 68.6511,
        "meta_ephemeris_type": 0,
        "meta_classification_type": "U",
        "meta_norad_cat_id": 41862,
        "meta_element_set_no": 999,
        "meta_rev_at_epoch": 5629,
        "meta_bstar": 0,
        "meta_mean_motion_dot": 2.8e-07,
        "meta_mean_motion_ddot": 0,
        "tle_line1": "1 41862U 16069D   25336.60720718  .00000028  00000+0  00000+0 0  9991",
        "tle_line2": "2 41862  55.3745 106.5268 0001109 291.2976  68.6511  1.70474512 56297"
      },
      "geometry": {
        "type": "Point",
        "coordinates": [
          136.7445645505936,
          36.17504354717846
        ]
      }
    },
    {
      "type": "Feature",
      "properties": {
        "norad_id": 42709,
        "name": "SES-15 (WAAS/PRN 133)",
        "group": "gnss",
        "lat": -0.006026377077018647,
        "lon": 166.77263166006384,
        "alt_km": 35787.364252624306,
        "timestamp": "2025-12-05T14:45:15.543978+00:00",
        "meta_object_name": "SES-15 (WAAS/PRN 133)",
        "meta_object_id": "2017-026A",
        "meta_epoch": "2025-12-04T09:41:16.878912",
        "meta_mean_motion": 1.00268217,
        "meta_eccentricity": 4.5e-05,
        "meta_inclination": 0.0196,
        "meta_ra_of_asc_node": 344.9042,
        "meta_arg_of_pericenter": 283.4852,
        "meta_mean_anomaly": 181.2308,
        "meta_ephemeris_type": 0,
        "meta_classification_type": "U",
        "meta_norad_cat_id": 42709,
        "meta_element_set_no": 999,
        "meta_rev_at_epoch": 548,
        "meta_bstar": 0,
        "meta_mean_motion_dot": 7.5e-07,
        "meta_mean_motion_ddot": 0,
        "tle_line1": "1 42709U 17026A   25338.40366758  .00000075  00000+0  00000+0 0  9998",
        "tle_line2": "2 42709   0.0196 344.9042 0000450 283.4852 181.2308  1.00268217  5484"
      },
      "geometry": {
        "type": "Point",
        "coordinates": [
          166.77263166006384,
          -0.006026377077018647
        ]
      }
    },
    {
      "type": "Feature",
      "properties": {
        "norad_id": 42738,
        "name": "QZS-2 (QZSS/PRN 194)",
        "group": "gnss",
        "lat": -1.821648115442714,
        "lon": 68.19075882033992,
        "alt_km": 35355.54115769325,
        "timestamp": "2025-12-05T14:45:15.543991+00:00",
        "meta_object_name": "QZS-2 (QZSS/PRN 194)",
        "meta_object_id": "2017-028A",
        "meta_epoch": "2025-12-04T14:21:45.952128",
        "meta_mean_motion": 1.00285177,
        "meta_eccentricity": 0.0758839,
        "meta_inclination": 39.7274,
        "meta_ra_of_asc_node": 246.0027,
        "meta_arg_of_pericenter": 269.3925,
        "meta_mean_anomaly": 275.2021,
        "meta_ephemeris_type": 0,
        "meta_classification_type": "U",
        "meta_norad_cat_id": 42738,
        "meta_element_set_no": 999,
        "meta_rev_at_epoch": 567,
        "meta_bstar": 0,
        "meta_mean_motion_dot": -1.53e-06,
        "meta_mean_motion_ddot": 0,
        "tle_line1": "1 42738U 17028A   25338.59844852 -.00000153  00000+0  00000+0 0  9996",
        "tle_line2": "2 42738  39.7274 246.0027 0758839 269.3925 275.2021  1.00285177  5673"
      },
      "geometry": {
        "type": "Point",
        "coordinates": [
          68.19075882033992,
          -1.821648115442714
        ]
      }
    },
    {
      "type": "Feature",
      "properties": {
        "norad_id": 42917,
        "name": "QZS-3 (QZSS/PRN 199)",
        "group": "gnss",
        "lat": 0.0027742686077067446,
        "lon": 62.979823235379925,
        "alt_km": 35794.253045277954,
        "timestamp": "2025-12-05T14:45:15.544004+00:00",
        "meta_object_name": "QZS-3 (QZSS/PRN 199)",
        "meta_object_id": "2017-048A",
        "meta_epoch": "2025-12-04T12:37:03.483264",
        "meta_mean_motion": 1.00275451,
        "meta_eccentricity": 0.0002196,
        "meta_inclination": 0.0716,
        "meta_ra_of_asc_node": 219.518,
        "meta_arg_of_pericenter": 37.3169,
        "meta_mean_anomaly": 133.0178,
        "meta_ephemeris_type": 0,
        "meta_classification_type": "U",
        "meta_norad_cat_id": 42917,
        "meta_element_set_no": 999,
        "meta_rev_at_epoch": 3030,
        "meta_bstar": 0,
        "meta_mean_motion_dot": -3.33e-06,
        "meta_mean_motion_ddot": 0,
        "tle_line1": "1 42917U 17048A   25338.52573476 -.00000333  00000+0  00000+0 0  9991",
        "tle_line2": "2 42917   0.0716 219.5180 0002196  37.3169 133.0178  1.00275451 30306"
      },
      "geometry": {
        "type": "Point",
        "coordinates": [
          62.979823235379925,
          0.0027742686077067446
        ]
      }
    }
  ]
}